SHIJIAN-20 (SJ-20)      
1 44910U 19097A   26197.84909832  .00000123  00000+0  00000+0 0  9996
2 44910   4.9925  74.6989 0015410  57.6015 152.8232  1.00270033 23999
TJS-5                   
1 44978U 20002A   26198.01880765 -.00000352  00000+0  00000+0 0  9996
2 44978   0.0691  76.4035 0007740 338.7912 353.9098  1.00269959 24000
GSAT-30                 
1 45026U 20005A   26198.64076369 -.00000174  00000+0  00000+0 0  9992
2 45026   0.0414 239.9663 0003197 209.5349 159.6221  1.00272932 23814
EUTELSAT KONNECT        
1 45027U 20005B   26198.34064251  .00000040  00000+0  00000+0 0  9998
2 45027   0.0669  94.3570 0001984 136.3089 194.3310  1.00273939 24631
JCSAT-17                
1 45245U 20013A   26198.29486829 -.00000324  00000+0  00000+0 0  9998
2 45245   5.3923 357.1562 0003147 127.5157  52.6074  1.00271713 23535
GEO-KOMPSAT-2B          
1 45246U 20013B   26197.86565175  .00000000  00000+0  00000+0 0  9993
2 45246   0.0191 242.4049 0000323 327.1066 165.0675  1.00270329 23573
BEIDOU-3 G2             
1 45344U 20017A   26198.65980323 -.00000150  00000+0  00000+0 0  9997
2 45344   2.9248  47.8431 0001914  58.6715 146.5033  1.00272721 23561
AEHF-6 (USA 298)        
1 45465U 20022B   26198.56364054 -.00000307  00000+0  00000+0 0  9998
2 45465   2.4828 301.5505 0041959  15.4308 319.0685  1.00270586 23318
BEIDOU-3 G3             
1 45807U 20040A   26198.59927350 -.00000364  00000+0  00000+0 0  9998
2 45807   2.5204  67.4888 0002210 308.4037 245.7579  1.00275300 22371
APSTAR-6D               
1 45863U 20045A   26198.65086718 -.00000326  00000+0  00000+0 0  9994
2 45863   0.0417  92.3752 0003023 357.0622 214.3584  1.00282834 22167
KOREASAT 116            
1 45920U 20048A   26198.64731383 -.00000371  00000+0  00000+0 0  9995
2 45920   0.0186 313.2863 0001036 191.4155 139.9313  1.00267336 21942
EXPRESS 103             
1 45985U 20053A   26198.28706826 -.00000290  00000+0  00000+0 0  9996
2 45985   0.0289 273.5202 0000581 183.5299  37.8943  1.00271218 21957
EXPRESS 80              
1 45986U 20053B   26197.95890906  .00000000  00000+0  00000+0 0  9991
2 45986   0.0172  31.6048 0001653 196.4103 131.9709  1.00276846 21923
BSAT-4B                 
1 46112U 20056A   26198.33517197 -.00000360  00000+0  00000+0 0  9997
2 46112   0.0407 141.6154 0004347 347.3846  36.6373  1.00271224 21697
MEV-2                   
1 46113U 20056B   26198.62412751 -.00000021  00000+0  00000+0 0  9994
2 46113   0.0556 255.0697 0000219   5.8120 258.2367  1.00270229 81011
GALAXY 30 (G-30)        
1 46114U 20056C   26198.59960073  .00000000  00000+0  00000+0 0  9992
2 46114   0.0225  59.8270 0002254  58.8872 267.5676  1.00270960 21590
GAOFEN-13 01            
1 46610U 20071A   26198.73239251 -.00000372  00000+0  00000+0 0  9996
2 46610   0.4752  86.0992 0044455 119.9495 111.3333  1.00277046 21220
TIANTONG-1 2            
1 46916U 20082A   26198.50646869 -.00000365  00000+0  00000+0 0  9991
2 46916   0.7551 332.0988 0001257 128.7405 141.7506  1.00272600 20959
LUCAS (JDRS-1)          
1 47202U 20089A   26198.65017392 -.00000244  00000+0  00000+0 0  9992
2 47202   0.0688 268.2898 0001667 180.7253 171.2994  1.00269713 20721
SXM-7                   
1 47240U 20096A   26198.32235575 -.00000215  00000+0  00000+0 0  9999
2 47240   0.0271  97.9904 0003500  21.3110 206.7257  1.00270775  7749
CMS-01                  
1 47256U 20099A   26198.58586341 -.00000174  00000+0  00000+0 0  9991
2 47256   0.0810  90.8071 0003398 175.0160 323.4716  1.00270753 20501
TURKSAT 5A              
1 47306U 21001A   26198.63045421  .00000145  00000+0  00000+0 0  9993
2 47306   0.0157  72.0706 0000159 223.5806 257.6712  1.00271962 20277
TIANTONG-1 3            
1 47321U 21003A   26197.78505229 -.00000163  00000+0  00000+0 0  9995
2 47321   1.7349 341.1546 0003039 143.3720 174.2252  1.00269970 20258
TJS-6                   
1 47613U 21010A   26198.58842067  .00000033  00000+0  00000+0 0  9995
2 47613   0.1736 261.3875 0003075 241.3471 182.9744  1.00273245 20112
SBIRS GEO-5 (USA 315)   
1 48618U 21042A   26198.63316773 -.00000275  00000+0  00000+0 0  9991
2 48618   5.0658 329.3601 0001501 152.1752 135.6530  1.00271363 19070
FENGYUN 4B              
1 48808U 21047A   26198.64504271 -.00000340  00000+0  00000+0 0  9993
2 48808   0.2266  80.0309 0006862 272.7902 279.3983  1.00278378 18878
SXM-8                   
1 48838U 21049A   26198.32235575 -.00000215  00000+0  00000+0 0  9992
2 48838   0.0198  52.5003 0005527 339.8225 293.7079  1.00270206 18887
TIANLIAN 1-05           
1 49011U 21063A   26198.12868314  .00000097  00000+0  00000+0 0  9990
2 49011   1.6693  80.4468 0001026  86.3251 191.3553  1.00273008 18373
STAR ONE D2             
1 49055U 21069A   26198.04016625  .00000000  00000+0  00000+0 0  9999
2 49055   0.0108  31.0435 0002455 108.1861 100.0200  1.00271428 18244
EUTELSAT QUANTUM        
1 49056U 21069B   26198.63383034  .00000117  00000+0  00000+0 0  9995
2 49056   0.0096  26.3251 0002109  83.5335 101.4483  1.00272597 18237
ZHONGXING-2E            
1 49062U 21071A   26198.66608867  .00000000  00000+0  00000+0 0  9993
2 49062   0.0172 238.4800 0001175 260.1785 134.6978  1.00270341 18343
TJS-7                   
1 49115U 21077A   26198.60462742 -.00000133  00000+0  00000+0 0  9990
2 49115   0.2783 263.8334 0002925 112.4716  37.2544  1.00272928  9859
