OBJECT_NAME,OBJECT_ID,EPOCH,MEAN_MOTION,ECCENTRICITY,INCLINATION,RA_OF_ASC_NODE,ARG_OF_PERICENTER,MEAN_ANOMALY,EPHEMERIS_TYPE,CLASSIFICATION_TYPE,NORAD_CAT_ID,ELEMENT_SET_NO,REV_AT_EPOCH,BSTAR,MEAN_MOTION_DOT,MEAN_MOTION_DDOT
SHIJIAN-20 (SJ-20),2019-097A,2026-07-16T20:22:42.094848,1.00270033,.001541,4.9925,74.6989,57.6015,152.8232,0,U,44910,999,2399,0,.123E-5,0
TJS-5,2020-002A,2026-07-17T00:27:04.980960,1.00269959,.000774,0.0691,76.4035,338.7912,353.9098,0,U,44978,999,2400,0,-.352E-5,0
GSAT-30,2020-005A,2026-07-17T15:22:41.982816,1.00272932,.0003197,0.0414,239.9663,209.5349,159.6221,0,U,45026,999,2381,0,-.174E-5,0
EUTELSAT KONNECT,2020-005B,2026-07-17T08:10:31.512864,1.00273939,.00019849,0.0669,94.3570,136.3089,194.3310,0,U,45027,999,2463,0,.4E-6,0
JCSAT-17,2020-013A,2026-07-17T07:04:36.620256,1.00271713,.0003147,5.3923,357.1562,127.5157,52.6074,0,U,45245,999,2353,0,-.324E-5,0
GEO-KOMPSAT-2B,2020-013B,2026-07-16T20:46:32.311200,1.00270329,.00003237,0.0191,242.4049,327.1066,165.0675,0,U,45246,999,2357,0,0,0
BEIDOU-3 G2,2020-017A,2026-07-17T15:50:06.999072,1.00272721,.0001914,2.9248,47.8431,58.6715,146.5033,0,U,45344,999,2356,0,-.15E-5,0
AEHF-6 (USA 298),2020-022B,2026-07-17T13:31:38.542656,1.00270586,.00419591,2.4828,301.5505,15.4308,319.0685,0,U,45465,999,2331,0,-.307E-5,0
BEIDOU-3 G3,2020-040A,2026-07-17T14:22:57.230400,1.00275300,.00022103,2.5204,67.4888,308.4037,245.7579,0,U,45807,999,2237,0,-.364E-5,0
APSTAR-6D,2020-045A,2026-07-17T15:37:14.924352,1.00282834,.00030232,0.0417,92.3752,357.0622,214.3584,0,U,45863,999,2216,0,-.326E-5,0
KOREASAT 116,2020-048A,2026-07-17T15:32:07.914912,1.00267336,.0001036,0.0186,313.2863,191.4155,139.9313,0,U,45920,999,2194,0,-.371E-5,0
EXPRESS 103,2020-053A,2026-07-17T06:53:22.697664,1.00271218,.00005817,0.0289,273.5202,183.5299,37.8943,0,U,45985,999,2195,0,-.29E-5,0
EXPRESS 80,2020-053B,2026-07-16T23:00:49.742784,1.00276846,.00016534,0.0172,31.6048,196.4103,131.9709,0,U,45986,999,2192,0,0,0
BSAT-4B,2020-056A,2026-07-17T08:02:38.858208,1.00271224,.00043478,0.0407,141.6154,347.3846,36.6373,0,U,46112,999,2169,0,-.36E-5,0
MEV-2,2020-056B,2026-07-17T14:58:44.616864,1.00270229,.00002197,0.0556,255.0697,5.8120,258.2367,0,U,46113,999,8101,0,-.21E-6,0
GALAXY 30 (G-30),2020-056C,2026-07-17T14:23:25.503072,1.00270960,.00022542,0.0225,59.8270,58.8872,267.5676,0,U,46114,999,2159,0,0,0
GAOFEN-13 01,2020-071A,2026-07-17T17:34:38.712864,1.00277046,.0044455,0.4752,86.0992,119.9495,111.3333,0,U,46610,999,2122,0,-.372E-5,0
TIANTONG-1 2,2020-082A,2026-07-17T12:09:18.894816,1.00272600,.00012572,0.7551,332.0988,128.7405,141.7506,0,U,46916,999,2095,0,-.365E-5,0
LUCAS (JDRS-1),2020-089A,2026-07-17T15:36:15.026688,1.00269713,.0001667,0.0688,268.2898,180.7253,171.2994,0,U,47202,999,2072,0,-.244E-5,0
SXM-7,2020-096A,2026-07-17T07:44:11.536800,1.00270775,.00035008,0.0271,97.9904,21.3110,206.7257,0,U,47240,999,774,0,-.215E-5,0
CMS-01,2020-099A,2026-07-17T14:03:38.598624,1.00270753,.0003398,0.0810,90.8071,175.0160,323.4716,0,U,47256,999,2050,0,-.174E-5,0
TURKSAT 5A,2021-001A,2026-07-17T15:07:51.243744,1.00271962,.00001591,0.0157,72.0706,223.5806,257.6712,0,U,47306,999,2027,0,.145E-5,0
TIANTONG-1 3,2021-003A,2026-07-16T18:50:28.517856,1.00269970,.0003039,1.7349,341.1546,143.3720,174.2252,0,U,47321,999,2025,0,-.163E-5,0
TJS-6,2021-010A,2026-07-17T14:07:19.545888,1.00273245,.00030757,0.1736,261.3875,241.3471,182.9744,0,U,47613,999,2011,0,.33E-6,0
SBIRS GEO-5 (USA 315),2021-042A,2026-07-17T15:11:45.691872,1.00271363,.00015012,5.0658,329.3601,152.1752,135.6530,0,U,48618,999,1907,0,-.275E-5,0
FENGYUN 4B,2021-047A,2026-07-17T15:28:51.690144,1.00278378,.00068622,0.2266,80.0309,272.7902,279.3983,0,U,48808,999,1887,0,-.34E-5,0
SXM-8,2021-049A,2026-07-17T07:44:11.536800,1.00270206,.0005527,0.0198,52.5003,339.8225,293.7079,0,U,48838,999,1888,0,-.215E-5,0
TIANLIAN 1-05,2021-063A,2026-07-17T03:05:18.223296,1.00273008,.00010265,1.6693,80.4468,86.3251,191.3553,0,U,49011,999,1837,0,.97E-6,0
STAR ONE D2,2021-069A,2026-07-17T00:57:50.364000,1.00271428,.0002455,0.0108,31.0435,108.1861,100.0200,0,U,49055,999,1824,0,0,0
EUTELSAT QUANTUM,2021-069B,2026-07-17T15:12:42.941376,1.00272597,.00021099,0.0096,26.3251,83.5335,101.4483,0,U,49056,999,1823,0,.117E-5,0
ZHONGXING-2E,2021-071A,2026-07-17T15:59:10.061088,1.00270341,.00011751,0.0172,238.4800,260.1785,134.6978,0,U,49062,999,1834,0,0,0
TJS-7,2021-077A,2026-07-17T14:30:39.809088,1.00272928,.00029254,0.2783,263.8334,112.4716,37.2544,0,U,49115,999,985,0,-.133E-5,0
